{
  "type": "FeatureCollection",
  "features": [
    {
      "type": "Feature",
      "properties": {
        "norad_id": 66800,
        "name": "STARLINK-35996",
        "group": "last-30-days",
        "lat": 37.342428648428815,
        "lon": -55.24676708142714,
        "alt_km": 410.02707870059567,
        "timestamp": "2025-12-24T18:55:54.776453+00:00",
        "meta_object_name": "STARLINK-35996",
        "meta_object_id": "2025-278K",
        "meta_epoch": "2025-12-24T08:00:03.000384",
        "meta_mean_motion": 15.50509259,
        "meta_eccentricity": 0.00016506,
        "meta_inclination": 43.0002,
        "meta_ra_of_asc_node": 182.3788,
        "meta_arg_of_pericenter": 259.5742,
        "meta_mean_anomaly": 192.1576,
        "meta_ephemeris_type": 0,
        "meta_classification_type": "U",
        "meta_norad_cat_id": 66800,
        "meta_element_set_no": 999,
        "meta_rev_at_epoch": 461,
        "meta_bstar": 0.0011361391,
        "meta_mean_motion_dot": 0.00066714,
        "meta_mean_motion_ddot": 0,
        "tle_line1": "1 66800U 25278K   25358.33336806  .00066714  00000+0  11361-2 0  9996",
        "tle_line2": "2 66800  43.0002 182.3788 0001650 259.5742 192.1576 15.50509259  4617"
      },
      "geometry": {
        "type": "Point",
        "coordinates": [
          -55.24676708142714,
          37.342428648428815
        ]
      }
    },
    {
      "type": "Feature",
      "properties": {
        "norad_id": 66801,
        "name": "STARLINK-36080",
        "group": "last-30-days",
        "lat": 33.11209707294435,
        "lon": -44.72824771339106,
        "alt_km": 411.0198388669269,
        "timestamp": "2025-12-24T18:55:54.776464+00:00",
        "meta_object_name": "STARLINK-36080",
        "meta_object_id": "2025-278L",
        "meta_epoch": "2025-12-24T08:00:03.000384",
        "meta_mean_motion": 15.50590099,
        "meta_eccentricity": 0.00022717,
        "meta_inclination": 43.0002,
        "meta_ra_of_asc_node": 182.3543,
        "meta_arg_of_pericenter": 259.4606,
        "meta_mean_anomaly": 201.8232,
        "meta_ephemeris_type": 0,
        "meta_classification_type": "U",
        "meta_norad_cat_id": 66801,
        "meta_element_set_no": 999,
        "meta_rev_at_epoch": 482,
        "meta_bstar": -0.0011854809,
        "meta_mean_motion_dot": -0.00069309,
        "meta_mean_motion_ddot": 0,
        "tle_line1": "1 66801U 25278L   25358.33336806 -.00069309  00000+0 -11855-2 0  9990",
        "tle_line2": "2 66801  43.0002 182.3543 0002271 259.4606 201.8232 15.50590099  4827"
      },
      "geometry": {
        "type": "Point",
        "coordinates": [
          -44.72824771339106,
          33.11209707294435
        ]
      }
    },
    {
      "type": "Feature",
      "properties": {
        "norad_id": 66802,
        "name": "STARLINK-35604",
        "group": "last-30-days",
        "lat": 38.07440814584682,
        "lon": -57.492220124488064,
        "alt_km": 410.3687881820688,
        "timestamp": "2025-12-24T18:55:54.776474+00:00",
        "meta_object_name": "STARLINK-35604",
        "meta_object_id": "2025-278M",
        "meta_epoch": "2025-12-24T08:00:03.000384",
        "meta_mean_motion": 15.5057924,
        "meta_eccentricity": 0.00021716,
        "meta_inclination": 43.0001,
        "meta_ra_of_asc_node": 182.3833,
        "meta_arg_of_pericenter": 261.656,
        "meta_mean_anomaly": 188.1269,
        "meta_ephemeris_type": 0,
        "meta_classification_type": "U",
        "meta_norad_cat_id": 66802,
        "meta_element_set_no": 999,
        "meta_rev_at_epoch": 482,
        "meta_bstar": -0.00082901115,
        "meta_mean_motion_dot": -0.00048678,
        "meta_mean_motion_ddot": 0,
        "tle_line1": "1 66802U 25278M   25358.33336806 -.00048678  00000+0 -82901-3 0  9998",
        "tle_line2": "2 66802  43.0001 182.3833 0002171 261.6560 188.1269 15.50579240  4824"
      },
      "geometry": {
        "type": "Point",
        "coordinates": [
          -57.492220124488064,
          38.07440814584682
        ]
      }
    },
    {
      "type": "Feature",
      "properties": {
        "norad_id": 66803,
        "name": "STARLINK-35565",
        "group": "last-30-days",
        "lat": 38.64929652964853,
        "lon": -59.390498900913684,
        "alt_km": 420.89579528297236,
        "timestamp": "2025-12-24T18:55:54.776484+00:00",
        "meta_object_name": "STARLINK-35565",
        "meta_object_id": "2025-278N",
        "meta_epoch": "2025-12-24T08:00:03.000384",
        "meta_mean_motion": 15.48945919,
        "meta_eccentricity": 0.00016576,
        "meta_inclination": 43.0001,
        "meta_ra_of_asc_node": 182.3764,
        "meta_arg_of_pericenter": 269.7559,
        "meta_mean_anomaly": 182.7754,
        "meta_ephemeris_type": 0,
        "meta_classification_type": "U",
        "meta_norad_cat_id": 66803,
        "meta_element_set_no": 999,
        "meta_rev_at_epoch": 491,
        "meta_bstar": -0.042012871,
        "meta_mean_motion_dot": -0.02068649,
        "meta_mean_motion_ddot": 0,
        "tle_line1": "1 66803U 25278N   25358.33336806 -.02068649  00000+0 -42013-1 0  9999",
        "tle_line2": "2 66803  43.0001 182.3764 0001657 269.7559 182.7754 15.48945919  4919"
      },
      "geometry": {
        "type": "Point",
        "coordinates": [
          -59.390498900913684,
          38.64929652964853
        ]
      }
    },
    {
      "type": "Feature",
      "properties": {
        "norad_id": 66804,
        "name": "STARLINK-36038",
        "group": "last-30-days",
        "lat": 37.12749586452272,
        "lon": -54.61985543188818,
        "alt_km": 418.1873706095739,
        "timestamp": "2025-12-24T18:55:54.776497+00:00",
        "meta_object_name": "STARLINK-36038",
        "meta_object_id": "2025-278P",
        "meta_epoch": "2025-12-24T08:00:03.000384",
        "meta_mean_motion": 15.49707571,
        "meta_eccentricity": 0.00016144,
        "meta_inclination": 43.0001,
        "meta_ra_of_asc_node": 182.3699,
        "meta_arg_of_pericenter": 275.0879,
        "meta_mean_anomaly": 180.0578,
        "meta_ephemeris_type": 0,
        "meta_classification_type": "U",
        "meta_norad_cat_id": 66804,
        "meta_element_set_no": 999,
        "meta_rev_at_epoch": 482,
        "meta_bstar": -0.036121888,
        "meta_mean_motion_dot": -0.01819559,
        "meta_mean_motion_ddot": 0,
        "tle_line1": "1 66804U 25278P   25358.33336806 -.01819559  00000+0 -36122-1 0  9997",
        "tle_line2": "2 66804  43.0001 182.3699 0001614 275.0879 180.0578 15.49707571  4821"
      },
      "geometry": {
        "type": "Point",
        "coordinates": [
          -54.61985543188818,
          37.12749586452272
        ]
      }
    },
    {
      "type": "Feature",
      "properties": {
        "norad_id": 66805,
        "name": "STARLINK-36049",
        "group": "last-30-days",
        "lat": 34.02129333016063,
        "lon": -46.72712286856691,
        "alt_km": 410.70444618821693,
        "timestamp": "2025-12-24T18:55:54.776509+00:00",
        "meta_object_name": "STARLINK-36049",
        "meta_object_id": "2025-278Q",
        "meta_epoch": "2025-12-24T08:00:03.000384",
        "meta_mean_motion": 15.50574293,
        "meta_eccentricity": 0.0002205,
        "meta_inclination": 43,
        "meta_ra_of_asc_node": 182.3582,
        "meta_arg_of_pericenter": 258.0999,
        "meta_mean_anomaly": 201.2579,
        "meta_ephemeris_type": 0,
        "meta_classification_type": "U",
        "meta_norad_cat_id": 66805,
        "meta_element_set_no": 999,
        "meta_rev_at_epoch": 482,
        "meta_bstar": 2.4303114e-05,
        "meta_mean_motion_dot": 1.084e-05,
        "meta_mean_motion_ddot": 0,
        "tle_line1": "1 66805U 25278Q   25358.33336806  .00001084  00000+0  24303-4 0  9992",
        "tle_line2": "2 66805  43.0000 182.3582 0002205 258.0999 201.2579 15.50574293  4825"
      },
      "geometry": {
        "type": "Point",
        "coordinates": [
          -46.72712286856691,
          34.02129333016063
        ]
      }
    },
    {
      "type": "Feature",
      "properties": {
        "norad_id": 66806,
        "name": "STARLINK-36069",
        "group": "last-30-days",
        "lat": 34.91282920668408,
        "lon": -48.801998826971825,
        "alt_km": 410.7281071425632,
        "timestamp": "2025-12-24T18:55:54.776519+00:00",
        "meta_object_name": "STARLINK-36069",
        "meta_object_id": "2025-278R",
        "meta_epoch": "2025-12-24T08:00:03.000384",
        "meta_mean_motion": 15.50482496,
        "meta_eccentricity": 0.00022129,
        "meta_inclination": 43.0002,
        "meta_ra_of_asc_node": 182.3648,
        "meta_arg_of_pericenter": 265.7963,
        "meta_mean_anomaly": 191.7056,
        "meta_ephemeris_type": 0,
        "meta_classification_type": "U",
        "meta_norad_cat_id": 66806,
        "meta_element_set_no": 999,
        "meta_rev_at_epoch": 461,
        "meta_bstar": 0.001665623,
        "meta_mean_motion_dot": 0.00098272,
        "meta_mean_motion_ddot": 0,
        "tle_line1": "1 66806U 25278R   25358.33336806  .00098272  00000+0  16656-2 0  9998",
        "tle_line2": "2 66806  43.0002 182.3648 0002212 265.7963 191.7056 15.50482496  4618"
      },
      "geometry": {
        "type": "Point",
        "coordinates": [
          -48.801998826971825,
          34.91282920668408
        ]
      }
    }
  ]
}